# Named minor moons of the giant planets.

# Semiaxes from the Natural Satellites Data Center
# http://lnfm1.sai.msu.ru/neb/nss/pardihe.htm,
# supplemented by Karkoschka "Sizes, shapes and albedos
# of the inner satellites of Neptune" Icarus 2003; 162: 400
# and Porco et al. "Physical characteristics and possible
# accretionary origins for Saturn's small satellites" (2006)
# http://www.lpi.usra.edu/meetings/lpsc2006/pdf/2289.pdf
 
# Minor moons of Jupiter

"Metis:Jupiter XVI:1979 J 3" "Sol/Jupiter"
{
	Class "minormoon"
	Texture	 	"asteroid.jpg"
	SemiAxes [ 30 20 20 ]

	EllipticalOrbit
	{
	Period		0.294780
	SemiMajorAxis	127979
	Eccentricity	0.0012
	Inclination	0.019
	AscendingNode	263.953	#
	ArgOfPericenter 274.588	# J2000.0
	MeanAnomaly	7.649	#
	}

	RotationOffset		366

	Albedo 0.061
}

"Adrastea:Jupiter XV:1979 J 1" "Sol/Jupiter"
{
	Class "minormoon"
	Texture	 	"asteroid.jpg"
	SemiAxes [ 10 8 7 ]

	EllipticalOrbit
	{
	Period		0.29826
	SemiMajorAxis	128980
	Eccentricity	0.0018
	Inclination	0.054
	AscendingNode	36.236	#
	ArgOfPericenter 213.656	# J2000.0
	MeanAnomaly	344.875	#
	}

	RotationOffset		 55

	Albedo 0.1
}

"Thebe:Jupiter XIV:1979 J 2" "Sol/Jupiter"
{
	Class "minormoon"
	Texture	 	"asteroid.jpg"
	SemiAxes [ 58 49 42 ]

	EllipticalOrbit
	{
	Period		0.6745
	SemiMajorAxis	221900
	Eccentricity	0.0177
	Inclination	1.075	#
	AscendingNode	0.415	#
	ArgOfPericenter 28.001	# J2000.0
	MeanAnomaly	181.090	#
	}

	Obliquity		  0.0
	RotationOffset		 29.5

	Albedo 0.047
}

"Themisto:Jupiter XVIII:2000 J 1" "Sol/Jupiter"
{
	Class "minormoon"
	Texture	 	"asteroid.jpg"
	Mesh		"asteroid.cms"
	Radius		4.0

	EllipticalOrbit
	{
	Period		130.02
	SemiMajorAxis	7507000
	Eccentricity	0.2420
	Inclination	47.584	#
	AscendingNode	223.444	#
	ArgOfPericenter	238.413	# J2000.0
	MeanAnomaly     289.151	#
	}

	RotationPeriod  10   # Guess

	Albedo 0.04
}

"Leda:Jupiter XIII" "Sol/Jupiter"
{
	Class "minormoon"
	Texture	 	"asteroid.jpg"
	Mesh		"asteroid.cms"
	Radius		10

	EllipticalOrbit
	{
	Period		240.92
	SemiMajorAxis	11650000
	Eccentricity	0.1636
	Inclination	28.776	#
	AscendingNode	235.611	# J2000.0
	ArgOfPericenter	275.215	#
	MeanAnomaly     232.639	#
	}

	RotationPeriod  10   	# Guess

	Albedo 0.04
}

"Himalia:Jupiter VI" "Sol/Jupiter"
{
	Class "minormoon"
	Texture	 	"asteroid.jpg"
	SemiAxes [ 75 60 60 ]

	EllipticalOrbit
	{
	Period		250.56
	SemiMajorAxis	11461000
	Eccentricity	0.1623
	Inclination	30.182	#
	AscendingNode	90.236	#
	ArgOfPericenter	316.730	# J2000.0
	MeanAnomaly	78.236	#
	}

	RotationPeriod  9.6

	Albedo 0.04
}

"Lysithea:Jupiter X" "Sol/Jupiter"
{
	Class "minormoon"
	Texture	 	"asteroid.jpg"
	Mesh		"asteroid.cms"
	Radius		18

	EllipticalOrbit
	{
	Period		259.20
	SemiMajorAxis	11717000
	Eccentricity	0.1124
	Inclination	25.989	#
	AscendingNode	33.831	#
	ArgOfPericenter	45.606	# J2000.0
	MeanAnomaly     328.460	#
	}

	RotationPeriod  10   	# Guess

	Albedo 0.04
}

"Elara:Jupiter VII" "Sol/Jupiter"
{
	Class "minormoon"
	Texture	 	"asteroid.jpg"
	Mesh		"asteroid.cms"
	Radius		43

	EllipticalOrbit
	{
	Period		259.64
	SemiMajorAxis	11741000
	Eccentricity	0.2174
	Inclination	30.520	#
	AscendingNode	137.714	#
	ArgOfPericenter	126.817	# J2000.0
	MeanAnomaly     346.909	#
	}

	RotationPeriod  12

	Albedo 0.04
}

"Iocaste:Jupiter XXIV:2000 J 3" "Sol/Jupiter"
{
	Class "minormoon"
	Texture	 	"asteroid.jpg"
	Mesh		"asteroid.cms"
	Radius		2.6

	EllipticalOrbit
	{
	Period		631.49
	SemiMajorAxis	21269000
	Eccentricity	0.2156
	Inclination	148.117	#
	AscendingNode	294.484	#
	ArgOfPericenter	95.230	# J2000.0
	MeanAnomaly     182.064	#
	}

	RotationPeriod  10   # Guess

	Albedo 0.04
}

"Praxidike:Jupiter XXVII:2000 J 7" "Sol/Jupiter"
{
	Class "minormoon"
	Texture	 	"asteroid.jpg"
	Mesh		"asteroid.cms"
	Radius		3.4

	EllipticalOrbit
	{
	Period		625.30
	SemiMajorAxis	21147000
	Eccentricity	0.2296
	Inclination	141.869	#
	AscendingNode	305.912	#
	ArgOfPericenter	185.546	# J2000.0
	MeanAnomaly     127.898	#
	}

	RotationPeriod  10   # Guess

	Albedo 0.04
}

"Harpalyke:Jupiter XXII:2000 J 5" "Sol/Jupiter"
{
	Class "minormoon"
	Texture	 	"asteroid.jpg"
	Mesh		"asteroid.cms"
	Radius		2.2

	EllipticalOrbit
	{
	Period		623.34
	SemiMajorAxis	21105000
	Eccentricity	0.2259
	Inclination	148.725	#
	AscendingNode	54.669	#
	ArgOfPericenter	100.638	# J2000.0
	MeanAnomaly     255.488	#
	}

	RotationPeriod  10   # Guess

	Albedo 0.04
}

"Ananke:Jupiter XII" "Sol/Jupiter"
{
	Class "minormoon"
	Texture	 	"asteroid.jpg"
	Mesh		"asteroid.cms"
	Radius		14

	EllipticalOrbit
	{
	Period		629.77
	SemiMajorAxis	21276000
	Eccentricity	0.2435
	Inclination	149.828	#
	AscendingNode	33.659	#
	ArgOfPericenter	76.129	# J2000.0
	MeanAnomaly     271.820	#
	}

	RotationPeriod  10	# Guess

	Albedo 0.04
}

"Isonoe:Jupiter XXVI:2000 J 6" "Sol/Jupiter"
{
	Class "minormoon"
	Texture	 	"asteroid.jpg"
	Mesh		"asteroid.cms"
	Radius		1.9

	EllipticalOrbit
	{
	Period		725.52
	SemiMajorAxis	23217000
	Eccentricity	0.2461
	Inclination	168.026	#
	AscendingNode	152.118	#
	ArgOfPericenter	126.560	# J2000.0
	MeanAnomaly     116.296	#
	}

	RotationPeriod  10   # Guess

	Albedo 0.04
}

"Erinome:Jupiter XXV:2000 J 4" "Sol/Jupiter"
{
	Class "minormoon"
	Texture	 	"asteroid.jpg"
	Mesh		"asteroid.cms"
	Radius		1.6

	EllipticalOrbit
	{
	Period		728.26
	SemiMajorAxis	23279000
	Eccentricity	0.2659
	Inclination	159.212	#
	AscendingNode	336.042	#
	ArgOfPericenter	2.668	# J2000.0
	MeanAnomaly     273.099	#
	}

	RotationPeriod  10   # Guess

	Albedo 0.04
}

"Taygete:Jupiter XX:2000 J 9" "Sol/Jupiter"
{
	Class "minormoon"
	Texture	 	"asteroid.jpg"
	Mesh		"asteroid.cms"
	Radius		2.5

	EllipticalOrbit
	{
	Period		732.24
	SemiMajorAxis	23360000
	Eccentricity	0.2516
	Inclination	160.215	#
	AscendingNode	326.765	#
	ArgOfPericenter	211.713	# J2000.0
	MeanAnomaly     116.364	#
	}

	RotationPeriod  10   # Guess

	Albedo 0.04
}

"Chaldene:Jupiter XXI:2000 J 10" "Sol/Jupiter"
{
	Class "minormoon"
	Texture	 	"asteroid.jpg"
	Mesh		"asteroid.cms"
	Radius		1.9

	EllipticalOrbit
	{
	Period		723.78
	SemiMajorAxis	23179000
	Eccentricity	0.2512
	Inclination	167.733	#
	AscendingNode	152.657	#
	ArgOfPericenter	227.365	# J2000.0
	MeanAnomaly     275.502	#
	}

	RotationPeriod  10   # Guess

	Albedo 0.04
}

"Carme:Jupiter XI" "Sol/Jupiter"
{
	Class "minormoon"
	Texture	 	"asteroid.jpg"
	Mesh		"asteroid.cms"
	Radius		23

	EllipticalOrbit
	{
	Period		734.17
	SemiMajorAxis	23404000
	Eccentricity	0.2533
	Inclination	166.287	#
	AscendingNode	131.608	#
	ArgOfPericenter 0.166	# J2000.0
	MeanAnomaly     259.474 #
	}

	RotationPeriod  10	# Guess

	Albedo 0.04
}

"Pasiphae:Jupiter VIII" "Sol/Jupiter"
{
	Class "minormoon"
	Texture	 	"asteroid.jpg"
	Mesh		"asteroid.cms"
	Radius		30

	EllipticalOrbit
	{
	Period		743.63
	SemiMajorAxis	23624000
	Eccentricity	0.4090
	Inclination	138.021	#
	AscendingNode	338.919	#
	ArgOfPericenter	174.075	# J2000.0
	MeanAnomaly     279.225	#
	}

	RotationPeriod  10   	# Guess

	Albedo 0.04
}

"Kalyke:Jupiter XXIII:2000 J 2" "Sol/Jupiter"
{
	Class "minormoon"
	Texture	 	"asteroid.jpg"
	Mesh		"asteroid.cms"
	Radius		2.6

	EllipticalOrbit
	{
	Period		742.98
	SemiMajorAxis	23583000
	Eccentricity	0.2453
	Inclination	165.215	#
	AscendingNode	52.607	#
	ArgOfPericenter	232.978	# J2000.0
	MeanAnomaly     225.334	#
	}

	RotationPeriod  10   # Guess

	Albedo 0.04
}

"Megaclite:Jupiter XIX:2000 J 8" "Sol/Jupiter"
{
	Class "minormoon"
	Texture	 	"asteroid.jpg"
	Mesh		"asteroid.cms"
	Radius		2.7

	EllipticalOrbit
	{
	Period		752.82
	SemiMajorAxis	23806000
	Eccentricity	0.4210
	Inclination	150.370	#
	AscendingNode	317.211	#
	ArgOfPericenter	313.167	# J2000.0
	MeanAnomaly     116.082	#
	}

	RotationPeriod  10   # Guess

	Albedo 0.04
}

"Sinope:Jupiter IX" "Sol/Jupiter"
{
	Class "minormoon"
	Texture	 	"asteroid.jpg"
	Mesh		"asteroid.cms"
	Radius		19

	EllipticalOrbit
	{
	Period		758.90
	SemiMajorAxis	23939000
	Eccentricity	0.2495
	Inclination	150.190	#
	AscendingNode	332.196	#
	ArgOfPericenter	356.497	# J2000.0
	MeanAnomaly     157.451	#
	}

	RotationPeriod  10   	# Guess

	Albedo 0.04
}

"Callirrhoe:Jupiter XVII:1999 J 1" "Sol/Jupiter"
{
	Class "minormoon"
	Texture	 	"asteroid.jpg"
	Mesh		"asteroid.cms"
	Radius		4.3

	EllipticalOrbit
	{
	Period		758.77
	SemiMajorAxis	24102000
	Eccentricity	0.2827
	Inclination	138.004 #
	AscendingNode	302.562	#
	ArgOfPericenter	16.381	# J2000.0
	MeanAnomaly     117.900	#
	}

	RotationPeriod  10   # Guess

	Albedo 0.04
}


# Minor moons of Saturn

"Pan:Saturn XVIII:1981 S 13" "Sol/Saturn"   # Cassini-epoch data
{
	Class "minormoon"
	Texture	 	"asteroid.jpg"
	SemiAxes [ 17.6 17.3 11.5 ]

	EllipticalOrbit
	{
	Epoch		2453177.5 # 2004 Jun 21 00:00UT
	Period		0.57505
	SemiMajorAxis	133584
	Eccentricity	0.00021
	Inclination	0.007
	AscendingNode	263.0
	LongOfPericenter 209.0
	MeanLongitude	106.645
	}

	RotationEpoch	    2453177.5 # 2004 Jun 21 00:00UT
	Obliquity		  0.0
	RotationOffset		287

	Albedo 0.5
}

"Atlas:Saturn XV:1980 S 28" "Sol/Saturn"   # Cassini-epoch data
{
	Class "minormoon"
	Texture	 	"asteroid.jpg"
	SemiAxes [ 22.8 19.0 9.6 ]

	EllipticalOrbit
	{
	Epoch		2453177.5 # 2004 Jun 21 00:00UT
	Period		0.60169
	SemiMajorAxis	137665
	Eccentricity	0.0012
	Inclination	0.009
	AscendingNode	241.0
	LongOfPericenter 42.3
	MeanLongitude	331.432
	}

	RotationEpoch	    2453177.5 # 2004 Jun 21 00:00UT
	Obliquity		  0.0
	RotationOffset		151

	Albedo 0.4
}

